0 COSMOS 2469
1 37170U 10049A   13281.52937205 -.00001345  00000-0  10000-3 0  9404
2 37170 064.0756 065.1976 7217505 284.3534 167.6576 02.00787492 22155
0 COSMOS 2469
1 37170U 10049A   13282.63498760 -.00001349  00000-0  10000-3 0  9410
2 37170 064.0766 065.0481 7217772 284.3440 246.8381 02.00784287 22173
0 COSMOS 2469
1 37170U 10049A   13283.30514733  .00000000  00000-0  10000-3 0  9438
2 37170 064.0613 064.9628 7215552 284.3466 011.2406 02.00784110 22196
0 COSMOS 2469
1 37170U 10049A   13284.02110478 -.00001350  00000-0  10000-3 0  9425
2 37170 064.0773 064.8589 7218042 284.3335 168.7582 02.00780297 22207
0 COSMOS 2469
1 37170U 10049A   13286.46218153 -.00001335  00000-0  10000-3 0  9449
2 37170 064.0806 064.5281 7218605 284.3148 133.1705 02.00772962 22255
0 COSMOS 2469
1 37170U 10049A   13287.54015560 -.00001325  00000-0  10000-3 0  9456
2 37170 064.0811 064.3810 7218841 284.3067 192.3137 02.00769837 22274
0 COSMOS 2469
1 37170U 10049A   13288.55943256 -.00001317  00000-0  10000-3 0  9462
2 37170 064.0826 064.2432 7219029 284.2992 209.0175 02.00766792 22291
0 COSMOS 2469
1 37170U 10049A   13289.80464845 -.00001312  00000-0  10000-3 0  9479
2 37170 064.0845 064.0750 7219297 284.2901 029.0101 02.00763155 22312
0 COSMOS 2469
1 37170U 10049A   13290.27815887  .00000000  00000-0  10000-3 0  9492
2 37170 064.0671 064.0160 7217010 284.2954 011.2412 02.00764325 22322
0 COSMOS 2469
1 37170U 10049A   13290.81846532 -.00001312  00000-0  10000-3 0  9480
2 37170 064.0861 063.9382 7219486 284.2825 041.7460 02.00760244 22331
0 COSMOS 2469
1 37170U 10049A   13291.82527329 -.00001316  00000-0  10000-3 0  9497
2 37170 064.0877 063.8031 7219695 284.2743 049.4059 02.00757375 22351
0 COSMOS 2469
1 37170U 10049A   13292.88440314 -.00001321  00000-0  10000-3 0  9500
2 37170 064.0895 063.6594 7219853 284.2659 094.8714 02.00754431 22380
0 COSMOS 2469
1 37170U 10049A   13294.26327140 -.00001326  00000-0  10000-3 0  9511
2 37170 064.0901 063.4737 7220488 284.2568 011.3989 02.00750467 22417
0 COSMOS 2469
1 37170U 10049A   13295.45755863 -.00001325  00000-0  10000-3 0  9520
2 37170 064.0915 063.3099 7220711 284.2488 154.5170 02.00747197 22432
